OKEAN-3                 
1 21397U 91039A   25317.80721316  .00008501  00000+0  61453-3 0  9995
2 21397  82.5159  89.0434 0014489   9.9821 350.1690 15.03843824847615
COSMOS 2151             
1 21422U 91042A   25317.79773434  .00005206  00000+0  42078-3 0  9995
2 21422  82.4982 195.3874 0014276  89.7775 270.5084 14.99540922845824
SL-14 R/B               
1 21423U 91042B   25317.47360514  .00000973  00000+0  12045-3 0  9999
2 21423  82.4921 329.1715 0015493 262.4437  97.5017 14.81700318835860
ERS-1                   
1 21574U 91050A   25317.47074234  .00000826  00000+0  27919-3 0  9999
2 21574  98.7924 327.7913 0031903 185.1577 174.9285 14.39332259799015
ARIANE 40 R/B           
1 21610U 91050F   25317.17388527  .00000943  00000+0  29544-3 0  9996
2 21610  98.2210   8.6657 0004233  75.2357 284.9303 14.42776722802198
INTERCOSMOS 25          
1 21819U 91086A   25317.40824750  .00003093  00000+0  60664-3 0  9992
2 21819  82.6078  20.3054 1488310   7.6261 354.4931 12.11598499482603
SL-8 R/B                
1 21876U 92008B   25317.61466993  .00000196  00000+0  18508-3 0  9995
2 21876  82.9283 354.1108 0036132  98.7718  73.5810 13.75950220693450
SL-8 R/B                
1 21938U 92020B   25317.54921160  .00000120  00000+0  10938-3 0  9998
2 21938  82.9312 239.9914 0027605 262.1505 271.1608 13.75521754685169
USA 81                  
1 21949U 92023A   25317.20377571  .00000437  00000+0  15480-3 0  9995
2 21949  85.0109 198.6064 0002610  75.5011 284.6471 14.32311753 78111
COSMOS 2219             
1 22219U 92076A   25317.86300880  .00000167  00000+0  11228-3 0  9991
2 22219  71.0612 260.1930 0017733   9.1286 351.0155 14.14066932702008
SL-16 R/B               
1 22220U 92076B   25317.61984637 -.00000003  00000+0  22583-4 0  9991
2 22220  71.0003  72.8690 0015291 272.0406  99.0255 14.16836002705397
COSMOS 2221             
1 22236U 92080A   25317.64900278  .00005616  00000+0  50280-3 0  9993
2 22236  82.5069  30.1618 0013738 217.4857 142.5407 14.95603224763445
